<?xml version='1.0' encoding='UTF-8'?>
<gpx version="1.1" creator="https://www.komoot.de" xmlns="http://www.topografix.com/GPX/1/1" xmlns:xsi="http://www.w3.org/2001/XMLSchema-instance" xsi:schemaLocation="http://www.topografix.com/GPX/1/1 http://www.topografix.com/GPX/1/1/gpx.xsd">
  <metadata>
    <name>Fronteers: City Walk Dordrecht</name>
    <author>
      <link href="https://www.komoot.de">
        <text>komoot</text>
        <type>text/html</type>
      </link>
    </author>
  </metadata>
  <wpt lat="51.814321" lon="4.670540">
    <name>City Brasserie De Witt</name>
    <sym>Restaurant</sym>
  </wpt>
  <wpt lat="51.815410" lon="4.670403">
    <name>Information board Augustijnenhof / The Court of the Netherlands</name>
    <sym>Flag, Blue</sym>
  </wpt>
  <wpt lat="51.815665" lon="4.669643">
    <name>Fire engine house</name>
    <sym>Flag, Blue</sym>
  </wpt>
  <wpt lat="51.815600" lon="4.668718">
    <name>De Pauw House</name>
    <sym>Flag, Blue</sym>
  </wpt>
  <wpt lat="51.816463" lon="4.666152">
    <name>Statue of Dirk IV of Holland</name>
    <sym>Flag, Blue</sym>
  </wpt>
  <wpt lat="51.816427" lon="4.665232">
    <name>Old Fish Hall</name>
    <sym>Flag, Blue</sym>
  </wpt>
  <wpt lat="51.815270" lon="4.667146">
    <name>Ary Scheffer Statue</name>
    <sym>Flag, Blue</sym>
  </wpt>
  <wpt lat="51.814080" lon="4.666967">
    <name>Oude Mannenhuis Entrance Gate</name>
    <sym>Flag, Blue</sym>
  </wpt>
  <wpt lat="51.813245" lon="4.668530">
    <name>Cat Café Stripe</name>
    <sym>Restaurant</sym>
  </wpt>
  <wpt lat="51.813105" lon="4.668739">
    <name>Arme Vrouwenhof Entrance</name>
    <sym>Flag, Blue</sym>
  </wpt>
  <wpt lat="51.812637" lon="4.669518">
    <name>Monument to Albert Cuyp</name>
    <sym>Flag, Blue</sym>
  </wpt>
  <wpt lat="51.812455" lon="4.669758">
    <name>Leprosy House</name>
    <sym>Flag, Blue</sym>
  </wpt>
  <wpt lat="51.812371" lon="4.669883">
    <name>Dordt City Monastery</name>
    <sym>Flag, Blue</sym>
  </wpt>
  <wpt lat="51.812287" lon="4.668666">
    <name>Street Art The Horse</name>
    <sym>Flag, Blue</sym>
  </wpt>
  <wpt lat="51.812175" lon="4.668515">
    <name>Former Savings Bank</name>
    <sym>Flag, Blue</sym>
  </wpt>
  <wpt lat="51.814356" lon="4.665167">
    <name>Statue of Johan and Cornelis de Witt</name>
    <sym>Flag, Blue</sym>
  </wpt>
  <wpt lat="51.814395" lon="4.665135">
    <name>Monument to the De Witt Brothers</name>
    <sym>Flag, Blue</sym>
  </wpt>
  <wpt lat="51.813898" lon="4.664212">
    <name>Dordrecht Town Hall</name>
    <sym>Flag, Blue</sym>
  </wpt>
  <wpt lat="51.813637" lon="4.664091">
    <name>De Grachtwacht Mural at Voorstraathaven</name>
    <sym>Flag, Blue</sym>
  </wpt>
  <wpt lat="51.813398" lon="4.656937">
    <name>Lime Harbour</name>
    <sym>Flag, Blue</sym>
  </wpt>
  <wpt lat="51.813538" lon="4.657190">
    <name>Wall decoration "Fighting Merman"</name>
    <sym>Flag, Blue</sym>
  </wpt>
  <wpt lat="51.813847" lon="4.657549">
    <name>The Korenbeurs</name>
    <sym>Flag, Blue</sym>
  </wpt>
  <wpt lat="51.813792" lon="4.658852">
    <name>Parental home of Lenie Dicke</name>
    <sym>Flag, Blue</sym>
  </wpt>
  <wpt lat="51.813806" lon="4.659202">
    <name>Bridge decoration "Man"</name>
    <sym>Flag, Blue</sym>
  </wpt>
  <wpt lat="51.813849" lon="4.659055">
    <name>Bridge Keeper's House Leuvebrug</name>
    <sym>Flag, Blue</sym>
  </wpt>
  <wpt lat="51.814462" lon="4.659808">
    <name>Facade fitting "Coat of Arms"</name>
    <sym>Flag, Blue</sym>
  </wpt>
  <wpt lat="51.814106" lon="4.660587">
    <name>Church of Our Lady</name>
    <sym>Flag, Blue</sym>
  </wpt>
  <wpt lat="51.815407" lon="4.661377">
    <name>Nieuwe Haven and Grote Kerk Dordrecht</name>
    <sym>Flag, Blue</sym>
  </wpt>
  <wpt lat="51.815866" lon="4.663349">
    <name>Long Iron Bridge</name>
    <sym>Bridge</sym>
  </wpt>
  <wpt lat="51.816516" lon="4.664006">
    <name>Paul House P.L. KOOIMAN</name>
    <sym>Flag, Blue</sym>
  </wpt>
  <wpt lat="51.817290" lon="4.665317">
    <name>Straatman Propeller Dock.</name>
    <sym>Flag, Blue</sym>
  </wpt>
  <wpt lat="51.817207" lon="4.665597">
    <name>Nieuwe Haven, Dordrecht</name>
    <sym>Flag, Blue</sym>
  </wpt>
  <wpt lat="51.818994" lon="4.668247">
    <name>Kuipershaven, Dordrecht</name>
    <sym>Flag, Blue</sym>
  </wpt>
  <wpt lat="51.819799" lon="4.670154">
    <name>Groothoofd Gate</name>
    <sym>Flag, Blue</sym>
  </wpt>
  <wpt lat="51.818015" lon="4.668525">
    <name>St. Boniface Church, Dordrecht</name>
    <sym>Flag, Blue</sym>
  </wpt>
  <wpt lat="51.817038" lon="4.669492">
    <name>Zakkendragersstraat</name>
    <sym>Flag, Blue</sym>
  </wpt>
  <wpt lat="51.817822" lon="4.670520">
    <name>Old Catholic Church Maria Maior.</name>
    <sym>Flag, Blue</sym>
  </wpt>
  <wpt lat="51.819666" lon="4.672571">
    <name>Sailing Ship Relief (1608)</name>
    <sym>Flag, Blue</sym>
  </wpt>
  <wpt lat="51.813545" lon="4.670820">
    <name>Arend Maartenshof</name>
    <sym>Flag, Blue</sym>
  </wpt>
  <wpt lat="51.813587" lon="4.670413">
    <name>Kunstkerk Dordrecht</name>
    <sym>Flag, Blue</sym>
  </wpt>
  <wpt lat="51.813714" lon="4.670586">
    <name>Oudewater Cloister Garden</name>
    <sym>Flag, Blue</sym>
  </wpt>
  <trk>
    <name>Fronteers: City Walk Dordrecht</name>
    <type>hike</type>
    <trkseg>
      <trkpt lat="51.814362" lon="4.670473">
        <ele>4.801377</ele>
        <time>2026-06-01T02:38:17.773Z</time>
      </trkpt>
      <trkpt lat="51.814414" lon="4.670557">
        <ele>4.801377</ele>
        <time>2026-06-01T02:38:25.094Z</time>
      </trkpt>
      <trkpt lat="51.814451" lon="4.670617">
        <ele>4.801377</ele>
        <time>2026-06-01T02:38:30.431Z</time>
      </trkpt>
      <trkpt lat="51.814511" lon="4.670714">
        <ele>4.801377</ele>
        <time>2026-06-01T02:38:38.957Z</time>
      </trkpt>
      <trkpt lat="51.814624" lon="4.670895">
        <ele>4.801377</ele>
        <time>2026-06-01T02:38:54.913Z</time>
      </trkpt>
      <trkpt lat="51.814690" lon="4.670796">
        <ele>4.801377</ele>
        <time>2026-06-01T02:39:04.012Z</time>
      </trkpt>
      <trkpt lat="51.814777" lon="4.670727">
        <ele>4.801377</ele>
        <time>2026-06-01T02:39:13.979Z</time>
      </trkpt>
      <trkpt lat="51.815089" lon="4.670485">
        <ele>4.804213</ele>
        <time>2026-06-01T02:39:49.942Z</time>
      </trkpt>
      <trkpt lat="51.815141" lon="4.670565">
        <ele>4.865247</ele>
        <time>2026-06-01T02:39:57.455Z</time>
      </trkpt>
      <trkpt lat="51.815285" lon="4.670206">
        <ele>5.090255</ele>
        <time>2026-06-01T02:40:25.169Z</time>
      </trkpt>
      <trkpt lat="51.815301" lon="4.670165">
        <ele>5.115747</ele>
        <time>2026-06-01T02:40:28.409Z</time>
      </trkpt>
      <trkpt lat="51.815330" lon="4.670202">
        <ele>5.147161</ele>
        <time>2026-06-01T02:40:32.256Z</time>
      </trkpt>
      <trkpt lat="51.815407" lon="4.670289">
        <ele>5.227043</ele>
        <time>2026-06-01T02:40:42.103Z</time>
      </trkpt>
      <trkpt lat="51.815442" lon="4.670330">
        <ele>5.263797</ele>
        <time>2026-06-01T02:40:46.674Z</time>
      </trkpt>
      <trkpt lat="51.815407" lon="4.670289">
        <ele>5.300550</ele>
        <time>2026-06-01T02:40:51.181Z</time>
      </trkpt>
      <trkpt lat="51.815522" lon="4.669977">
        <ele>5.491539</ele>
        <time>2026-06-01T02:41:14.856Z</time>
      </trkpt>
      <trkpt lat="51.815525" lon="4.669971">
        <ele>5.495596</ele>
        <time>2026-06-01T02:41:15.335Z</time>
      </trkpt>
      <trkpt lat="51.815563" lon="4.669877">
        <ele>5.554648</ele>
        <time>2026-06-01T02:41:22.571Z</time>
      </trkpt>
      <trkpt lat="51.815643" lon="4.669625">
        <ele>5.703594</ele>
        <time>2026-06-01T02:41:40.569Z</time>
      </trkpt>
      <trkpt lat="51.815686" lon="4.669492">
        <ele>5.782508</ele>
        <time>2026-06-01T02:41:50.127Z</time>
      </trkpt>
      <trkpt lat="51.815728" lon="4.669395">
        <ele>5.844774</ele>
        <time>2026-06-01T02:41:57.591Z</time>
      </trkpt>
      <trkpt lat="51.815750" lon="4.669318">
        <ele>5.889373</ele>
        <time>2026-06-01T02:42:03.011Z</time>
      </trkpt>
      <trkpt lat="51.815649" lon="4.669235">
        <ele>5.985724</ele>
        <time>2026-06-01T02:42:14.538Z</time>
      </trkpt>
      <trkpt lat="51.815527" lon="4.668801">
        <ele>6.236395</ele>
        <time>2026-06-01T02:42:44.656Z</time>
      </trkpt>
      <trkpt lat="51.815561" lon="4.668762">
        <ele>6.271844</ele>
        <time>2026-06-01T02:42:48.963Z</time>
      </trkpt>
      <trkpt lat="51.815600" lon="4.668718">
        <ele>6.312285</ele>
        <time>2026-06-01T02:42:53.773Z</time>
      </trkpt>
      <trkpt lat="51.815674" lon="4.668634">
        <ele>6.312898</ele>
        <time>2026-06-01T02:43:03.005Z</time>
      </trkpt>
      <trkpt lat="51.815691" lon="4.668581">
        <ele>6.303034</ele>
        <time>2026-06-01T02:43:06.743Z</time>
      </trkpt>
      <trkpt lat="51.815824" lon="4.668200">
        <ele>6.230756</ele>
        <time>2026-06-01T02:43:33.847Z</time>
      </trkpt>
      <trkpt lat="51.815922" lon="4.667928">
        <ele>6.178750</ele>
        <time>2026-06-01T02:43:53.410Z</time>
      </trkpt>
      <trkpt lat="51.816141" lon="4.668034">
        <ele>6.117666</ele>
        <time>2026-06-01T02:44:16.546Z</time>
      </trkpt>
      <trkpt lat="51.816335" lon="4.668031">
        <ele>6.065824</ele>
        <time>2026-06-01T02:44:36.365Z</time>
      </trkpt>
      <trkpt lat="51.816385" lon="4.668030">
        <ele>6.052463</ele>
        <time>2026-06-01T02:44:41.501Z</time>
      </trkpt>
      <trkpt lat="51.816383" lon="4.667190">
        <ele>5.913704</ele>
        <time>2026-06-01T02:45:33.943Z</time>
      </trkpt>
      <trkpt lat="51.816285" lon="4.667076">
        <ele>5.881449</ele>
        <time>2026-06-01T02:45:46.046Z</time>
      </trkpt>
      <trkpt lat="51.816522" lon="4.666400">
        <ele>5.722489</ele>
        <time>2026-06-01T02:46:34.365Z</time>
      </trkpt>
      <trkpt lat="51.816554" lon="4.666308">
        <ele>5.699578</ele>
        <time>2026-06-01T02:46:40.953Z</time>
      </trkpt>
      <trkpt lat="51.816444" lon="4.666206">
        <ele>5.655062</ele>
        <time>2026-06-01T02:46:53.774Z</time>
      </trkpt>
      <trkpt lat="51.816406" lon="4.666171">
        <ele>5.639710</ele>
        <time>2026-06-01T02:46:58.172Z</time>
      </trkpt>
      <trkpt lat="51.816504" lon="4.665942">
        <ele>5.579260</ele>
        <time>2026-06-01T02:47:15.607Z</time>
      </trkpt>
      <trkpt lat="51.816308" lon="4.665699">
        <ele>5.492560</ele>
        <time>2026-06-01T02:47:40.761Z</time>
      </trkpt>
      <trkpt lat="51.816487" lon="4.665376">
        <ele>5.398410</ele>
        <time>2026-06-01T02:48:07.955Z</time>
      </trkpt>
      <trkpt lat="51.816411" lon="4.665260">
        <ele>5.361724</ele>
        <time>2026-06-01T02:48:18.420Z</time>
      </trkpt>
      <trkpt lat="51.816323" lon="4.665126">
        <ele>5.319293</ele>
        <time>2026-06-01T02:48:30.593Z</time>
      </trkpt>
      <trkpt lat="51.815784" lon="4.664217">
        <ele>5.324562</ele>
        <time>2026-06-01T02:49:48.516Z</time>
      </trkpt>
      <trkpt lat="51.815548" lon="4.663773">
        <ele>5.402053</ele>
        <time>2026-06-01T02:50:24.870Z</time>
      </trkpt>
      <trkpt lat="51.815481" lon="4.663646">
        <ele>5.424148</ele>
        <time>2026-06-01T02:50:35.245Z</time>
      </trkpt>
      <trkpt lat="51.815409" lon="4.663716">
        <ele>5.442131</ele>
        <time>2026-06-01T02:50:43.738Z</time>
      </trkpt>
      <trkpt lat="51.815331" lon="4.663753">
        <ele>5.459531</ele>
        <time>2026-06-01T02:50:51.902Z</time>
      </trkpt>
      <trkpt lat="51.815455" lon="4.664171">
        <ele>5.520888</ele>
        <time>2026-06-01T02:51:21.115Z</time>
      </trkpt>
      <trkpt lat="51.815201" lon="4.664396">
        <ele>5.582881</ele>
        <time>2026-06-01T02:51:50.660Z</time>
      </trkpt>
      <trkpt lat="51.815240" lon="4.664507">
        <ele>5.599777</ele>
        <time>2026-06-01T02:51:58.720Z</time>
      </trkpt>
      <trkpt lat="51.815313" lon="4.664715">
        <ele>5.671203</ele>
        <time>2026-06-01T02:52:13.709Z</time>
      </trkpt>
      <trkpt lat="51.815348" lon="4.664815">
        <ele>5.708504</ele>
        <time>2026-06-01T02:52:20.939Z</time>
      </trkpt>
      <trkpt lat="51.815335" lon="4.664853">
        <ele>5.722602</ele>
        <time>2026-06-01T02:52:23.671Z</time>
      </trkpt>
      <trkpt lat="51.815470" lon="4.665218">
        <ele>5.860669</ele>
        <time>2026-06-01T02:52:50.731Z</time>
      </trkpt>
      <trkpt lat="51.815540" lon="4.665409">
        <ele>5.932744</ele>
        <time>2026-06-01T02:53:04.787Z</time>
      </trkpt>
      <trkpt lat="51.815574" lon="4.665514">
        <ele>5.971220</ele>
        <time>2026-06-01T02:53:12.343Z</time>
      </trkpt>
      <trkpt lat="51.815630" lon="4.665686">
        <ele>6.034321</ele>
        <time>2026-06-01T02:53:24.641Z</time>
      </trkpt>
      <trkpt lat="51.815686" lon="4.665702">
        <ele>6.064181</ele>
        <time>2026-06-01T02:53:30.529Z</time>
      </trkpt>
      <trkpt lat="51.815786" lon="4.665959">
        <ele>6.162753</ele>
        <time>2026-06-01T02:53:49.453Z</time>
      </trkpt>
      <trkpt lat="51.815841" lon="4.666095">
        <ele>6.215506</ele>
        <time>2026-06-01T02:53:59.629Z</time>
      </trkpt>
      <trkpt lat="51.815865" lon="4.666151">
        <ele>6.237624</ele>
        <time>2026-06-01T02:54:03.940Z</time>
      </trkpt>
      <trkpt lat="51.815879" lon="4.666240">
        <ele>6.267434</ele>
        <time>2026-06-01T02:54:09.730Z</time>
      </trkpt>
      <trkpt lat="51.815856" lon="4.666449">
        <ele>6.336342</ele>
        <time>2026-06-01T02:54:23.227Z</time>
      </trkpt>
      <trkpt lat="51.815852" lon="4.666517">
        <ele>6.358515</ele>
        <time>2026-06-01T02:54:27.531Z</time>
      </trkpt>
      <trkpt lat="51.815916" lon="4.666686">
        <ele>6.422847</ele>
        <time>2026-06-01T02:54:40.056Z</time>
      </trkpt>
      <trkpt lat="51.815742" lon="4.666885">
        <ele>6.534740</ele>
        <time>2026-06-01T02:55:01.431Z</time>
      </trkpt>
      <trkpt lat="51.815711" lon="4.666918">
        <ele>6.546981</ele>
        <time>2026-06-01T02:55:05.281Z</time>
      </trkpt>
      <trkpt lat="51.815438" lon="4.667183">
        <ele>6.503092</ele>
        <time>2026-06-01T02:55:37.677Z</time>
      </trkpt>
      <trkpt lat="51.815373" lon="4.667244">
        <ele>6.492733</ele>
        <time>2026-06-01T02:55:45.362Z</time>
      </trkpt>
      <trkpt lat="51.815400" lon="4.667304">
        <ele>6.486408</ele>
        <time>2026-06-01T02:55:50.166Z</time>
      </trkpt>
      <trkpt lat="51.815365" lon="4.667344">
        <ele>6.480501</ele>
        <time>2026-06-01T02:55:54.554Z</time>
      </trkpt>
      <trkpt lat="51.815277" lon="4.667138">
        <ele>6.459162</ele>
        <time>2026-06-01T02:56:10.307Z</time>
      </trkpt>
      <trkpt lat="51.815106" lon="4.666743">
        <ele>6.418067</ele>
        <time>2026-06-01T02:56:40.141Z</time>
      </trkpt>
      <trkpt lat="51.814999" lon="4.666850">
        <ele>6.400726</ele>
        <time>2026-06-01T02:56:52.905Z</time>
      </trkpt>
      <trkpt lat="51.814918" lon="4.666931">
        <ele>6.387599</ele>
        <time>2026-06-01T02:57:02.545Z</time>
      </trkpt>
      <trkpt lat="51.814841" lon="4.667012">
        <ele>6.374937</ele>
        <time>2026-06-01T02:57:11.795Z</time>
      </trkpt>
      <trkpt lat="51.814819" lon="4.667039">
        <ele>6.371130</ele>
        <time>2026-06-01T02:57:14.678Z</time>
      </trkpt>
      <trkpt lat="51.814804" lon="4.667057">
        <ele>6.368556</ele>
        <time>2026-06-01T02:57:16.534Z</time>
      </trkpt>
      <trkpt lat="51.814609" lon="4.666588">
        <ele>6.320389</ele>
        <time>2026-06-01T02:57:51.884Z</time>
      </trkpt>
      <trkpt lat="51.814599" lon="4.666558">
        <ele>6.317484</ele>
        <time>2026-06-01T02:57:54.006Z</time>
      </trkpt>
      <trkpt lat="51.814204" lon="4.666968">
        <ele>5.968367</ele>
        <time>2026-06-01T02:58:41.760Z</time>
      </trkpt>
      <trkpt lat="51.814204" lon="4.666968">
        <ele>5.968367</ele>
        <time>2026-06-01T02:58:41.774Z</time>
      </trkpt>
      <trkpt lat="51.814103" lon="4.667025">
        <ele>5.865798</ele>
        <time>2026-06-01T02:58:52.470Z</time>
      </trkpt>
      <trkpt lat="51.813952" lon="4.667183">
        <ele>5.693359</ele>
        <time>2026-06-01T02:59:10.890Z</time>
      </trkpt>
      <trkpt lat="51.813965" lon="4.667216">
        <ele>5.670164</ele>
        <time>2026-06-01T02:59:13.426Z</time>
      </trkpt>
      <trkpt lat="51.813954" lon="4.667230">
        <ele>5.656743</ele>
        <time>2026-06-01T02:59:14.868Z</time>
      </trkpt>
      <trkpt lat="51.813830" lon="4.667394">
        <ele>5.503161</ele>
        <time>2026-06-01T02:59:31.355Z</time>
      </trkpt>
      <trkpt lat="51.813556" lon="4.667873">
        <ele>5.116317</ele>
        <time>2026-06-01T03:00:12.761Z</time>
      </trkpt>
      <trkpt lat="51.813501" lon="4.667983">
        <ele>5.032454</ele>
        <time>2026-06-01T03:00:21.699Z</time>
      </trkpt>
      <trkpt lat="51.813446" lon="4.668092">
        <ele>4.949051</ele>
        <time>2026-06-01T03:00:30.548Z</time>
      </trkpt>
      <trkpt lat="51.813225" lon="4.668502">
        <ele>4.626601</ele>
        <time>2026-06-01T03:01:04.858Z</time>
      </trkpt>
      <trkpt lat="51.813101" lon="4.668733">
        <ele>4.532814</ele>
        <time>2026-06-01T03:01:24.184Z</time>
      </trkpt>
      <trkpt lat="51.813055" lon="4.668818">
        <ele>4.510727</ele>
        <time>2026-06-01T03:01:31.299Z</time>
      </trkpt>
      <trkpt lat="51.812783" lon="4.669316">
        <ele>4.380800</ele>
        <time>2026-06-01T03:02:12.925Z</time>
      </trkpt>
      <trkpt lat="51.812695" lon="4.669484">
        <ele>4.337747</ele>
        <time>2026-06-01T03:02:26.615Z</time>
      </trkpt>
      <trkpt lat="51.812659" lon="4.669550">
        <ele>4.320537</ele>
        <time>2026-06-01T03:02:32.071Z</time>
      </trkpt>
      <trkpt lat="51.812334" lon="4.670139">
        <ele>4.166175</ele>
        <time>2026-06-01T03:03:21.012Z</time>
      </trkpt>
      <trkpt lat="51.812283" lon="4.670221">
        <ele>4.143433</ele>
        <time>2026-06-01T03:03:28.211Z</time>
      </trkpt>
      <trkpt lat="51.812226" lon="4.670155">
        <ele>4.121263</ele>
        <time>2026-06-01T03:03:35.276Z</time>
      </trkpt>
      <trkpt lat="51.812371" lon="4.669883">
        <ele>4.051039</ele>
        <time>2026-06-01T03:03:57.679Z</time>
      </trkpt>
      <trkpt lat="51.812445" lon="4.669744">
        <ele>4.015173</ele>
        <time>2026-06-01T03:04:09.045Z</time>
      </trkpt>
      <trkpt lat="51.812371" lon="4.669883">
        <ele>4.046663</ele>
        <time>2026-06-01T03:04:20.433Z</time>
      </trkpt>
      <trkpt lat="51.812445" lon="4.669744">
        <ele>4.097824</ele>
        <time>2026-06-01T03:04:31.780Z</time>
      </trkpt>
      <trkpt lat="51.812485" lon="4.669668">
        <ele>4.125661</ele>
        <time>2026-06-01T03:04:38.091Z</time>
      </trkpt>
      <trkpt lat="51.812725" lon="4.669236">
        <ele>4.287648</ele>
        <time>2026-06-01T03:05:14.679Z</time>
      </trkpt>
      <trkpt lat="51.812577" lon="4.669038">
        <ele>4.374293</ele>
        <time>2026-06-01T03:05:34.526Z</time>
      </trkpt>
      <trkpt lat="51.812491" lon="4.668925">
        <ele>4.424278</ele>
        <time>2026-06-01T03:05:45.874Z</time>
      </trkpt>
      <trkpt lat="51.812290" lon="4.668660">
        <ele>4.541261</ele>
        <time>2026-06-01T03:06:12.251Z</time>
      </trkpt>
      <trkpt lat="51.812246" lon="4.668602">
        <ele>4.566867</ele>
        <time>2026-06-01T03:06:18.031Z</time>
      </trkpt>
      <trkpt lat="51.812235" lon="4.668508">
        <ele>4.593550</ele>
        <time>2026-06-01T03:06:24.077Z</time>
      </trkpt>
      <trkpt lat="51.812281" lon="4.668418">
        <ele>4.626119</ele>
        <time>2026-06-01T03:06:31.354Z</time>
      </trkpt>
      <trkpt lat="51.812916" lon="4.667271">
        <ele>5.212467</ele>
        <time>2026-06-01T03:08:08.409Z</time>
      </trkpt>
      <trkpt lat="51.812964" lon="4.667172">
        <ele>5.270786</ele>
        <time>2026-06-01T03:08:16.504Z</time>
      </trkpt>
      <trkpt lat="51.813023" lon="4.667054">
        <ele>5.341133</ele>
        <time>2026-06-01T03:08:26.273Z</time>
      </trkpt>
      <trkpt lat="51.813169" lon="4.666769">
        <ele>5.512700</ele>
        <time>2026-06-01T03:08:49.887Z</time>
      </trkpt>
      <trkpt lat="51.813350" lon="4.666412">
        <ele>5.726712</ele>
        <time>2026-06-01T03:09:19.459Z</time>
      </trkpt>
      <trkpt lat="51.813542" lon="4.666071">
        <ele>5.940505</ele>
        <time>2026-06-01T03:09:48.829Z</time>
      </trkpt>
      <trkpt lat="51.813578" lon="4.666014">
        <ele>5.978276</ele>
        <time>2026-06-01T03:09:53.939Z</time>
      </trkpt>
      <trkpt lat="51.813729" lon="4.665814">
        <ele>6.124605</ele>
        <time>2026-06-01T03:10:13.996Z</time>
      </trkpt>
      <trkpt lat="51.814093" lon="4.665451">
        <ele>6.215229</ele>
        <time>2026-06-01T03:10:58.066Z</time>
      </trkpt>
      <trkpt lat="51.814128" lon="4.665415">
        <ele>6.220613</ele>
        <time>2026-06-01T03:11:02.358Z</time>
      </trkpt>
      <trkpt lat="51.814164" lon="4.665377">
        <ele>6.226194</ele>
        <time>2026-06-01T03:11:06.736Z</time>
      </trkpt>
      <trkpt lat="51.814204" lon="4.665335">
        <ele>6.232385</ele>
        <time>2026-06-01T03:11:11.684Z</time>
      </trkpt>
      <trkpt lat="51.814323" lon="4.665201">
        <ele>6.251208</ele>
        <time>2026-06-01T03:11:26.500Z</time>
      </trkpt>
      <trkpt lat="51.814354" lon="4.665164">
        <ele>6.256210</ele>
        <time>2026-06-01T03:11:30.431Z</time>
      </trkpt>
      <trkpt lat="51.814389" lon="4.665123">
        <ele>6.261820</ele>
        <time>2026-06-01T03:11:34.879Z</time>
      </trkpt>
      <trkpt lat="51.814463" lon="4.665036">
        <ele>6.273696</ele>
        <time>2026-06-01T03:11:44.137Z</time>
      </trkpt>
      <trkpt lat="51.814276" lon="4.664643">
        <ele>6.313498</ele>
        <time>2026-06-01T03:12:14.988Z</time>
      </trkpt>
      <trkpt lat="51.813925" lon="4.663920">
        <ele>6.387278</ele>
        <time>2026-06-01T03:13:12.450Z</time>
      </trkpt>
      <trkpt lat="51.813919" lon="4.663894">
        <ele>6.389505</ele>
        <time>2026-06-01T03:13:14.159Z</time>
      </trkpt>
      <trkpt lat="51.813885" lon="4.663921">
        <ele>6.394423</ele>
        <time>2026-06-01T03:13:18.052Z</time>
      </trkpt>
      <trkpt lat="51.813974" lon="4.664129">
        <ele>6.346004</ele>
        <time>2026-06-01T03:13:33.856Z</time>
      </trkpt>
      <trkpt lat="51.813899" lon="4.664213">
        <ele>6.300352</ele>
        <time>2026-06-01T03:13:43.067Z</time>
      </trkpt>
      <trkpt lat="51.813899" lon="4.664213">
        <ele>6.300352</ele>
        <time>2026-06-01T03:13:43.123Z</time>
      </trkpt>
      <trkpt lat="51.813734" lon="4.664024">
        <ele>6.199172</ele>
        <time>2026-06-01T03:14:03.328Z</time>
      </trkpt>
      <trkpt lat="51.813636" lon="4.664087">
        <ele>6.146397</ele>
        <time>2026-06-01T03:14:13.963Z</time>
      </trkpt>
      <trkpt lat="51.813600" lon="4.664110">
        <ele>6.127027</ele>
        <time>2026-06-01T03:14:17.825Z</time>
      </trkpt>
      <trkpt lat="51.813600" lon="4.664110">
        <ele>6.127027</ele>
        <time>2026-06-01T03:14:17.905Z</time>
      </trkpt>
      <trkpt lat="51.813588" lon="4.664066">
        <ele>6.112148</ele>
        <time>2026-06-01T03:14:20.859Z</time>
      </trkpt>
      <trkpt lat="51.813536" lon="4.664093">
        <ele>6.084818</ele>
        <time>2026-06-01T03:14:26.366Z</time>
      </trkpt>
      <trkpt lat="51.813454" lon="4.663723">
        <ele>5.963212</ele>
        <time>2026-06-01T03:14:50.852Z</time>
      </trkpt>
      <trkpt lat="51.813430" lon="4.663524">
        <ele>5.900484</ele>
        <time>2026-06-01T03:15:03.470Z</time>
      </trkpt>
      <trkpt lat="51.813437" lon="4.663422">
        <ele>5.868732</ele>
        <time>2026-06-01T03:15:09.845Z</time>
      </trkpt>
      <trkpt lat="51.813472" lon="4.662862">
        <ele>5.694593</ele>
        <time>2026-06-01T03:15:44.983Z</time>
      </trkpt>
      <trkpt lat="51.813575" lon="4.661690">
        <ele>5.095220</ele>
        <time>2026-06-01T03:16:59.519Z</time>
      </trkpt>
      <trkpt lat="51.813543" lon="4.661644">
        <ele>5.044775</ele>
        <time>2026-06-01T03:17:03.935Z</time>
      </trkpt>
      <trkpt lat="51.813516" lon="4.661602">
        <ele>5.000635</ele>
        <time>2026-06-01T03:17:07.828Z</time>
      </trkpt>
      <trkpt lat="51.813558" lon="4.661062">
        <ele>4.604158</ele>
        <time>2026-06-01T03:17:42.561Z</time>
      </trkpt>
      <trkpt lat="51.813453" lon="4.661037">
        <ele>4.479100</ele>
        <time>2026-06-01T03:17:53.616Z</time>
      </trkpt>
      <trkpt lat="51.813183" lon="4.660978">
        <ele>4.158059</ele>
        <time>2026-06-01T03:18:21.832Z</time>
      </trkpt>
      <trkpt lat="51.813163" lon="4.660917">
        <ele>4.107759</ele>
        <time>2026-06-01T03:18:26.239Z</time>
      </trkpt>
      <trkpt lat="51.813183" lon="4.660652">
        <ele>3.913279</ele>
        <time>2026-06-01T03:18:43.243Z</time>
      </trkpt>
      <trkpt lat="51.812793" lon="4.660582">
        <ele>3.450907</ele>
        <time>2026-06-01T03:19:23.389Z</time>
      </trkpt>
      <trkpt lat="51.812666" lon="4.660558">
        <ele>3.377643</ele>
        <time>2026-06-01T03:19:36.421Z</time>
      </trkpt>
      <trkpt lat="51.812630" lon="4.660552">
        <ele>3.375847</ele>
        <time>2026-06-01T03:19:40.120Z</time>
      </trkpt>
      <trkpt lat="51.812691" lon="4.659943">
        <ele>3.356918</ele>
        <time>2026-06-01T03:20:18.486Z</time>
      </trkpt>
      <trkpt lat="51.812782" lon="4.659632">
        <ele>3.346361</ele>
        <time>2026-06-01T03:20:39.892Z</time>
      </trkpt>
      <trkpt lat="51.812543" lon="4.658355">
        <ele>3.305424</ele>
        <time>2026-06-01T03:22:04.224Z</time>
      </trkpt>
      <trkpt lat="51.812659" lon="4.658384">
        <ele>3.299599</ele>
        <time>2026-06-01T03:22:16.317Z</time>
      </trkpt>
      <trkpt lat="51.812721" lon="4.657605">
        <ele>3.083538</ele>
        <time>2026-06-01T03:23:05.292Z</time>
      </trkpt>
      <trkpt lat="51.812833" lon="4.657655">
        <ele>3.009790</ele>
        <time>2026-06-01T03:23:17.225Z</time>
      </trkpt>
      <trkpt lat="51.813287" lon="4.657860">
        <ele>2.710603</ele>
        <time>2026-06-01T03:24:05.655Z</time>
      </trkpt>
      <trkpt lat="51.813525" lon="4.657288">
        <ele>2.440044</ele>
        <time>2026-06-01T03:24:49.473Z</time>
      </trkpt>
      <trkpt lat="51.813525" lon="4.657288">
        <ele>2.440044</ele>
        <time>2026-06-01T03:24:49.527Z</time>
      </trkpt>
      <trkpt lat="51.813525" lon="4.657288">
        <ele>2.440044</ele>
        <time>2026-06-01T03:24:49.527Z</time>
      </trkpt>
      <trkpt lat="51.813398" lon="4.656937">
        <ele>2.280453</ele>
        <time>2026-06-01T03:25:14.690Z</time>
      </trkpt>
      <trkpt lat="51.813557" lon="4.657211">
        <ele>2.193090</ele>
        <time>2026-06-01T03:25:37.909Z</time>
      </trkpt>
      <trkpt lat="51.813673" lon="4.656932">
        <ele>2.523959</ele>
        <time>2026-06-01T03:25:58.856Z</time>
      </trkpt>
      <trkpt lat="51.813950" lon="4.657227">
        <ele>3.051864</ele>
        <time>2026-06-01T03:26:33.154Z</time>
      </trkpt>
      <trkpt lat="51.813819" lon="4.657516">
        <ele>3.404513</ele>
        <time>2026-06-01T03:26:56.956Z</time>
      </trkpt>
      <trkpt lat="51.813548" lon="4.658118">
        <ele>4.137334</ele>
        <time>2026-06-01T03:27:47.434Z</time>
      </trkpt>
      <trkpt lat="51.813803" lon="4.658551">
        <ele>4.725821</ele>
        <time>2026-06-01T03:28:27.550Z</time>
      </trkpt>
      <trkpt lat="51.813849" lon="4.658682">
        <ele>4.874076</ele>
        <time>2026-06-01T03:28:37.814Z</time>
      </trkpt>
      <trkpt lat="51.813843" lon="4.658784">
        <ele>4.974904</ele>
        <time>2026-06-01T03:28:44.717Z</time>
      </trkpt>
      <trkpt lat="51.813816" lon="4.658871">
        <ele>5.010413</ele>
        <time>2026-06-01T03:28:51.318Z</time>
      </trkpt>
      <trkpt lat="51.813757" lon="4.659061">
        <ele>5.000466</ele>
        <time>2026-06-01T03:29:05.454Z</time>
      </trkpt>
      <trkpt lat="51.813778" lon="4.659118">
        <ele>4.997362</ele>
        <time>2026-06-01T03:29:09.810Z</time>
      </trkpt>
      <trkpt lat="51.813761" lon="4.659133">
        <ele>4.995897</ele>
        <time>2026-06-01T03:29:11.919Z</time>
      </trkpt>
      <trkpt lat="51.813780" lon="4.659173">
        <ele>4.993537</ele>
        <time>2026-06-01T03:29:15.144Z</time>
      </trkpt>
      <trkpt lat="51.813779" lon="4.659198">
        <ele>4.992365</ele>
        <time>2026-06-01T03:29:16.805Z</time>
      </trkpt>
      <trkpt lat="51.813780" lon="4.659173">
        <ele>4.991193</ele>
        <time>2026-06-01T03:29:18.514Z</time>
      </trkpt>
      <trkpt lat="51.813761" lon="4.659133">
        <ele>4.988833</ele>
        <time>2026-06-01T03:29:21.789Z</time>
      </trkpt>
      <trkpt lat="51.813778" lon="4.659118">
        <ele>4.987368</ele>
        <time>2026-06-01T03:29:23.809Z</time>
      </trkpt>
      <trkpt lat="51.813812" lon="4.659152">
        <ele>4.984343</ele>
        <time>2026-06-01T03:29:27.928Z</time>
      </trkpt>
      <trkpt lat="51.813860" lon="4.659200">
        <ele>4.980073</ele>
        <time>2026-06-01T03:29:33.784Z</time>
      </trkpt>
      <trkpt lat="51.813997" lon="4.659244">
        <ele>4.969504</ele>
        <time>2026-06-01T03:29:48.216Z</time>
      </trkpt>
      <trkpt lat="51.814118" lon="4.659282">
        <ele>4.960177</ele>
        <time>2026-06-01T03:30:00.754Z</time>
      </trkpt>
      <trkpt lat="51.814161" lon="4.659305">
        <ele>4.956749</ele>
        <time>2026-06-01T03:30:05.290Z</time>
      </trkpt>
      <trkpt lat="51.814254" lon="4.659394">
        <ele>4.948573</ele>
        <time>2026-06-01T03:30:16.083Z</time>
      </trkpt>
      <trkpt lat="51.814369" lon="4.659594">
        <ele>4.935795</ele>
        <time>2026-06-01T03:30:33.165Z</time>
      </trkpt>
      <trkpt lat="51.814448" lon="4.659800">
        <ele>4.924455</ele>
        <time>2026-06-01T03:30:48.332Z</time>
      </trkpt>
      <trkpt lat="51.814715" lon="4.660524">
        <ele>4.885017</ele>
        <time>2026-06-01T03:31:42.417Z</time>
      </trkpt>
      <trkpt lat="51.814777" lon="4.660646">
        <ele>4.877629</ele>
        <time>2026-06-01T03:31:52.539Z</time>
      </trkpt>
      <trkpt lat="51.815001" lon="4.660898">
        <ele>4.466699</ele>
        <time>2026-06-01T03:32:20.723Z</time>
      </trkpt>
      <trkpt lat="51.815062" lon="4.660815">
        <ele>4.343322</ele>
        <time>2026-06-01T03:32:29.035Z</time>
      </trkpt>
      <trkpt lat="51.815001" lon="4.660898">
        <ele>4.219945</ele>
        <time>2026-06-01T03:32:37.289Z</time>
      </trkpt>
      <trkpt lat="51.815204" lon="4.661082">
        <ele>3.859775</ele>
        <time>2026-06-01T03:33:01.621Z</time>
      </trkpt>
      <trkpt lat="51.815384" lon="4.661249">
        <ele>3.538597</ele>
        <time>2026-06-01T03:33:23.138Z</time>
      </trkpt>
      <trkpt lat="51.815436" lon="4.661298">
        <ele>3.445450</ele>
        <time>2026-06-01T03:33:29.410Z</time>
      </trkpt>
      <trkpt lat="51.815522" lon="4.661380">
        <ele>3.290935</ele>
        <time>2026-06-01T03:33:39.792Z</time>
      </trkpt>
      <trkpt lat="51.815478" lon="4.661579">
        <ele>3.088710</ele>
        <time>2026-06-01T03:33:53.409Z</time>
      </trkpt>
      <trkpt lat="51.815509" lon="4.661756">
        <ele>2.912682</ele>
        <time>2026-06-01T03:34:05.279Z</time>
      </trkpt>
      <trkpt lat="51.816037" lon="4.663107">
        <ele>2.114300</ele>
        <time>2026-06-01T03:35:46.020Z</time>
      </trkpt>
      <trkpt lat="51.816062" lon="4.663165">
        <ele>2.116322</ele>
        <time>2026-06-01T03:35:50.472Z</time>
      </trkpt>
      <trkpt lat="51.816018" lon="4.663193">
        <ele>2.118509</ele>
        <time>2026-06-01T03:35:55.265Z</time>
      </trkpt>
      <trkpt lat="51.815859" lon="4.663326">
        <ele>2.126789</ele>
        <time>2026-06-01T03:36:13.284Z</time>
      </trkpt>
      <trkpt lat="51.816018" lon="4.663193">
        <ele>2.135068</ele>
        <time>2026-06-01T03:36:31.285Z</time>
      </trkpt>
      <trkpt lat="51.816062" lon="4.663165">
        <ele>2.137255</ele>
        <time>2026-06-01T03:36:36.115Z</time>
      </trkpt>
      <trkpt lat="51.816089" lon="4.663227">
        <ele>2.139424</ele>
        <time>2026-06-01T03:36:40.837Z</time>
      </trkpt>
      <trkpt lat="51.816245" lon="4.663606">
        <ele>2.152443</ele>
        <time>2026-06-01T03:37:09.359Z</time>
      </trkpt>
      <trkpt lat="51.816483" lon="4.664052">
        <ele>2.169290</ele>
        <time>2026-06-01T03:37:46.772Z</time>
      </trkpt>
      <trkpt lat="51.816612" lon="4.664293">
        <ele>2.241578</ele>
        <time>2026-06-01T03:38:07.069Z</time>
      </trkpt>
      <trkpt lat="51.817011" lon="4.665043">
        <ele>3.112650</ele>
        <time>2026-06-01T03:39:11.571Z</time>
      </trkpt>
      <trkpt lat="51.817230" lon="4.665382">
        <ele>3.544299</ele>
        <time>2026-06-01T03:39:43.713Z</time>
      </trkpt>
      <trkpt lat="51.817290" lon="4.665349">
        <ele>3.634546</ele>
        <time>2026-06-01T03:39:50.537Z</time>
      </trkpt>
      <trkpt lat="51.817300" lon="4.665334">
        <ele>3.653967</ele>
        <time>2026-06-01T03:39:51.983Z</time>
      </trkpt>
      <trkpt lat="51.817290" lon="4.665349">
        <ele>3.673387</ele>
        <time>2026-06-01T03:39:53.396Z</time>
      </trkpt>
      <trkpt lat="51.817230" lon="4.665382">
        <ele>3.763634</ele>
        <time>2026-06-01T03:40:00.225Z</time>
      </trkpt>
      <trkpt lat="51.817227" lon="4.665409">
        <ele>3.787783</ele>
        <time>2026-06-01T03:40:02.016Z</time>
      </trkpt>
      <trkpt lat="51.817213" lon="4.665549">
        <ele>3.912629</ele>
        <time>2026-06-01T03:40:11.420Z</time>
      </trkpt>
      <trkpt lat="51.817205" lon="4.665627">
        <ele>3.982232</ele>
        <time>2026-06-01T03:40:16.624Z</time>
      </trkpt>
      <trkpt lat="51.817251" lon="4.665650">
        <ele>4.050797</ele>
        <time>2026-06-01T03:40:21.817Z</time>
      </trkpt>
      <trkpt lat="51.818194" lon="4.666962">
        <ele>4.989954</ele>
        <time>2026-06-01T03:42:31.718Z</time>
      </trkpt>
      <trkpt lat="51.818620" lon="4.667571">
        <ele>5.178316</ele>
        <time>2026-06-01T03:43:29.088Z</time>
      </trkpt>
      <trkpt lat="51.818982" lon="4.668264">
        <ele>5.215241</ele>
        <time>2026-06-01T03:44:25.901Z</time>
      </trkpt>
      <trkpt lat="51.819026" lon="4.668350">
        <ele>5.126632</ele>
        <time>2026-06-01T03:44:33.028Z</time>
      </trkpt>
      <trkpt lat="51.819343" lon="4.669131">
        <ele>4.385039</ele>
        <time>2026-06-01T03:45:32.732Z</time>
      </trkpt>
      <trkpt lat="51.819668" lon="4.669354">
        <ele>3.931739</ele>
        <time>2026-06-01T03:46:08.836Z</time>
      </trkpt>
      <trkpt lat="51.819767" lon="4.669931">
        <ele>3.456449</ele>
        <time>2026-06-01T03:46:47.203Z</time>
      </trkpt>
      <trkpt lat="51.819753" lon="4.670205">
        <ele>3.238229</ele>
        <time>2026-06-01T03:47:04.900Z</time>
      </trkpt>
      <trkpt lat="51.819788" lon="4.670194">
        <ele>3.192447</ele>
        <time>2026-06-01T03:47:08.654Z</time>
      </trkpt>
      <trkpt lat="51.819753" lon="4.670205">
        <ele>3.146665</ele>
        <time>2026-06-01T03:47:12.324Z</time>
      </trkpt>
      <trkpt lat="51.819745" lon="4.670359">
        <ele>3.024090</ele>
        <time>2026-06-01T03:47:22.270Z</time>
      </trkpt>
      <trkpt lat="51.819620" lon="4.670301">
        <ele>3.108743</ele>
        <time>2026-06-01T03:47:35.725Z</time>
      </trkpt>
      <trkpt lat="51.819555" lon="4.670267">
        <ele>3.153213</ele>
        <time>2026-06-01T03:47:42.712Z</time>
      </trkpt>
      <trkpt lat="51.819524" lon="4.670252">
        <ele>3.174276</ele>
        <time>2026-06-01T03:47:46.060Z</time>
      </trkpt>
      <trkpt lat="51.819415" lon="4.670380">
        <ele>3.261956</ele>
        <time>2026-06-01T03:47:59.860Z</time>
      </trkpt>
      <trkpt lat="51.819338" lon="4.670254">
        <ele>3.333253</ele>
        <time>2026-06-01T03:48:11.069Z</time>
      </trkpt>
      <trkpt lat="51.819249" lon="4.670444">
        <ele>3.429180</ele>
        <time>2026-06-01T03:48:25.782Z</time>
      </trkpt>
      <trkpt lat="51.818623" lon="4.669769">
        <ele>3.918916</ele>
        <time>2026-06-01T03:49:44.962Z</time>
      </trkpt>
      <trkpt lat="51.818513" lon="4.669650">
        <ele>4.005059</ele>
        <time>2026-06-01T03:49:58.856Z</time>
      </trkpt>
      <trkpt lat="51.818476" lon="4.669608">
        <ele>4.034483</ele>
        <time>2026-06-01T03:50:03.618Z</time>
      </trkpt>
      <trkpt lat="51.818694" lon="4.669094">
        <ele>4.321093</ele>
        <time>2026-06-01T03:50:45.008Z</time>
      </trkpt>
      <trkpt lat="51.818282" lon="4.668707">
        <ele>4.753965</ele>
        <time>2026-06-01T03:51:36.796Z</time>
      </trkpt>
      <trkpt lat="51.818013" lon="4.668532">
        <ele>5.017401</ele>
        <time>2026-06-01T03:52:07.342Z</time>
      </trkpt>
      <trkpt lat="51.817812" lon="4.668401">
        <ele>5.214293</ele>
        <time>2026-06-01T03:52:29.096Z</time>
      </trkpt>
      <trkpt lat="51.817586" lon="4.668277">
        <ele>5.431126</ele>
        <time>2026-06-01T03:52:52.949Z</time>
      </trkpt>
      <trkpt lat="51.817192" lon="4.668113">
        <ele>5.800774</ele>
        <time>2026-06-01T03:53:33.885Z</time>
      </trkpt>
      <trkpt lat="51.817126" lon="4.668575">
        <ele>5.799460</ele>
        <time>2026-06-01T03:54:03.432Z</time>
      </trkpt>
      <trkpt lat="51.817061" lon="4.669130">
        <ele>5.759837</ele>
        <time>2026-06-01T03:54:38.597Z</time>
      </trkpt>
      <trkpt lat="51.816993" lon="4.669451">
        <ele>5.736035</ele>
        <time>2026-06-01T03:54:59.828Z</time>
      </trkpt>
      <trkpt lat="51.817005" lon="4.669460">
        <ele>5.734534</ele>
        <time>2026-06-01T03:55:01.164Z</time>
      </trkpt>
      <trkpt lat="51.817040" lon="4.669486">
        <ele>5.730164</ele>
        <time>2026-06-01T03:55:05.036Z</time>
      </trkpt>
      <trkpt lat="51.817214" lon="4.669618">
        <ele>5.708356</ele>
        <time>2026-06-01T03:55:24.476Z</time>
      </trkpt>
      <trkpt lat="51.817242" lon="4.669646">
        <ele>5.704621</ele>
        <time>2026-06-01T03:55:27.828Z</time>
      </trkpt>
      <trkpt lat="51.817611" lon="4.670078">
        <ele>5.652935</ele>
        <time>2026-06-01T03:56:14.334Z</time>
      </trkpt>
      <trkpt lat="51.817711" lon="4.670245">
        <ele>5.636626</ele>
        <time>2026-06-01T03:56:28.966Z</time>
      </trkpt>
      <trkpt lat="51.817855" lon="4.670470">
        <ele>5.635052</ele>
        <time>2026-06-01T03:56:49.094Z</time>
      </trkpt>
      <trkpt lat="51.817825" lon="4.670532">
        <ele>5.639983</ele>
        <time>2026-06-01T03:56:53.948Z</time>
      </trkpt>
      <trkpt lat="51.817855" lon="4.670470">
        <ele>5.644914</ele>
        <time>2026-06-01T03:56:58.825Z</time>
      </trkpt>
      <trkpt lat="51.818029" lon="4.670712">
        <ele>5.668161</ele>
        <time>2026-06-01T03:57:21.805Z</time>
      </trkpt>
      <trkpt lat="51.818043" lon="4.670730">
        <ele>5.669973</ele>
        <time>2026-06-01T03:57:23.600Z</time>
      </trkpt>
      <trkpt lat="51.818556" lon="4.671386">
        <ele>5.736221</ele>
        <time>2026-06-01T03:58:29.460Z</time>
      </trkpt>
      <trkpt lat="51.818668" lon="4.671569">
        <ele>5.752348</ele>
        <time>2026-06-01T03:58:45.392Z</time>
      </trkpt>
      <trkpt lat="51.819007" lon="4.672091">
        <ele>5.799762</ele>
        <time>2026-06-01T03:59:32.452Z</time>
      </trkpt>
      <trkpt lat="51.819192" lon="4.672271">
        <ele>5.701761</ele>
        <time>2026-06-01T03:59:54.023Z</time>
      </trkpt>
      <trkpt lat="51.819349" lon="4.672506">
        <ele>5.542221</ele>
        <time>2026-06-01T04:00:15.595Z</time>
      </trkpt>
      <trkpt lat="51.819372" lon="4.672610">
        <ele>5.491294</ele>
        <time>2026-06-01T04:00:22.450Z</time>
      </trkpt>
      <trkpt lat="51.819410" lon="4.672594">
        <ele>5.462007</ele>
        <time>2026-06-01T04:00:26.447Z</time>
      </trkpt>
      <trkpt lat="51.819550" lon="4.672536">
        <ele>5.354213</ele>
        <time>2026-06-01T04:00:40.862Z</time>
      </trkpt>
      <trkpt lat="51.819688" lon="4.672556">
        <ele>5.250870</ele>
        <time>2026-06-01T04:00:54.935Z</time>
      </trkpt>
      <trkpt lat="51.819516" lon="4.673772">
        <ele>4.675731</ele>
        <time>2026-06-01T04:02:14.084Z</time>
      </trkpt>
      <trkpt lat="51.819487" lon="4.674016">
        <ele>4.561171</ele>
        <time>2026-06-01T04:02:29.989Z</time>
      </trkpt>
      <trkpt lat="51.819438" lon="4.674482">
        <ele>4.329650</ele>
        <time>2026-06-01T04:03:00.055Z</time>
      </trkpt>
      <trkpt lat="51.819394" lon="4.674737">
        <ele>4.194051</ele>
        <time>2026-06-01T04:03:16.740Z</time>
      </trkpt>
      <trkpt lat="51.819330" lon="4.674953">
        <ele>4.071367</ele>
        <time>2026-06-01T04:03:31.841Z</time>
      </trkpt>
      <trkpt lat="51.819234" lon="4.675127">
        <ele>3.951912</ele>
        <time>2026-06-01T04:03:46.582Z</time>
      </trkpt>
      <trkpt lat="51.819083" lon="4.675296">
        <ele>3.799772</ele>
        <time>2026-06-01T04:04:05.261Z</time>
      </trkpt>
      <trkpt lat="51.818865" lon="4.675402">
        <ele>3.611159</ele>
        <time>2026-06-01T04:04:28.631Z</time>
      </trkpt>
      <trkpt lat="51.818835" lon="4.675426">
        <ele>3.583428</ele>
        <time>2026-06-01T04:04:32.073Z</time>
      </trkpt>
      <trkpt lat="51.818748" lon="4.675452">
        <ele>3.510122</ele>
        <time>2026-06-01T04:04:41.108Z</time>
      </trkpt>
      <trkpt lat="51.818618" lon="4.675413">
        <ele>3.400570</ele>
        <time>2026-06-01T04:04:54.524Z</time>
      </trkpt>
      <trkpt lat="51.818542" lon="4.675298">
        <ele>3.314344</ele>
        <time>2026-06-01T04:05:05.195Z</time>
      </trkpt>
      <trkpt lat="51.818500" lon="4.675339">
        <ele>3.273698</ele>
        <time>2026-06-01T04:05:10.206Z</time>
      </trkpt>
      <trkpt lat="51.818331" lon="4.675080">
        <ele>3.080809</ele>
        <time>2026-06-01T04:05:33.784Z</time>
      </trkpt>
      <trkpt lat="51.818017" lon="4.674768">
        <ele>3.054935</ele>
        <time>2026-06-01T04:06:10.724Z</time>
      </trkpt>
      <trkpt lat="51.817662" lon="4.674417">
        <ele>3.192074</ele>
        <time>2026-06-01T04:06:53.225Z</time>
      </trkpt>
      <trkpt lat="51.817540" lon="4.674346">
        <ele>3.234810</ele>
        <time>2026-06-01T04:07:06.236Z</time>
      </trkpt>
      <trkpt lat="51.817453" lon="4.674328">
        <ele>3.263721</ele>
        <time>2026-06-01T04:07:15.175Z</time>
      </trkpt>
      <trkpt lat="51.817244" lon="4.674393">
        <ele>3.333872</ele>
        <time>2026-06-01T04:07:36.643Z</time>
      </trkpt>
      <trkpt lat="51.817252" lon="4.674448">
        <ele>3.345385</ele>
        <time>2026-06-01T04:07:40.154Z</time>
      </trkpt>
      <trkpt lat="51.816745" lon="4.674690">
        <ele>3.519624</ele>
        <time>2026-06-01T04:08:33.877Z</time>
      </trkpt>
      <trkpt lat="51.816730" lon="4.674659">
        <ele>3.527645</ele>
        <time>2026-06-01T04:08:36.365Z</time>
      </trkpt>
      <trkpt lat="51.816704" lon="4.674657">
        <ele>3.536225</ele>
        <time>2026-06-01T04:08:39.032Z</time>
      </trkpt>
      <trkpt lat="51.816583" lon="4.674593">
        <ele>3.587752</ele>
        <time>2026-06-01T04:08:52.332Z</time>
      </trkpt>
      <trkpt lat="51.816628" lon="4.674440">
        <ele>3.655563</ele>
        <time>2026-06-01T04:09:03.232Z</time>
      </trkpt>
      <trkpt lat="51.816660" lon="4.674215">
        <ele>3.747964</ele>
        <time>2026-06-01T04:09:18.075Z</time>
      </trkpt>
      <trkpt lat="51.816766" lon="4.673930">
        <ele>3.881079</ele>
        <time>2026-06-01T04:09:39.301Z</time>
      </trkpt>
      <trkpt lat="51.816798" lon="4.673840">
        <ele>3.922631</ele>
        <time>2026-06-01T04:09:45.861Z</time>
      </trkpt>
      <trkpt lat="51.816820" lon="4.673774">
        <ele>3.952641</ele>
        <time>2026-06-01T04:09:50.653Z</time>
      </trkpt>
      <trkpt lat="51.816816" lon="4.673677">
        <ele>3.991548</ele>
        <time>2026-06-01T04:09:56.785Z</time>
      </trkpt>
      <trkpt lat="51.816807" lon="4.673669">
        <ele>3.998196</ele>
        <time>2026-06-01T04:09:57.811Z</time>
      </trkpt>
      <trkpt lat="51.816594" lon="4.673460">
        <ele>4.159481</ele>
        <time>2026-06-01T04:10:23.286Z</time>
      </trkpt>
      <trkpt lat="51.816348" lon="4.673221">
        <ele>4.345261</ele>
        <time>2026-06-01T04:10:52.538Z</time>
      </trkpt>
      <trkpt lat="51.816312" lon="4.673185">
        <ele>4.372661</ele>
        <time>2026-06-01T04:10:56.959Z</time>
      </trkpt>
      <trkpt lat="51.816004" lon="4.672883">
        <ele>4.605836</ele>
        <time>2026-06-01T04:11:33.732Z</time>
      </trkpt>
      <trkpt lat="51.815889" lon="4.672795">
        <ele>4.688198</ele>
        <time>2026-06-01T04:11:46.585Z</time>
      </trkpt>
      <trkpt lat="51.815633" lon="4.672614">
        <ele>4.737733</ele>
        <time>2026-06-01T04:12:15.069Z</time>
      </trkpt>
      <trkpt lat="51.815295" lon="4.672408">
        <ele>4.746318</ele>
        <time>2026-06-01T04:12:52.030Z</time>
      </trkpt>
      <trkpt lat="51.815230" lon="4.672396">
        <ele>4.747872</ele>
        <time>2026-06-01T04:12:58.653Z</time>
      </trkpt>
      <trkpt lat="51.815045" lon="4.672254">
        <ele>4.752739</ele>
        <time>2026-06-01T04:13:19.345Z</time>
      </trkpt>
      <trkpt lat="51.814830" lon="4.672002">
        <ele>4.759049</ele>
        <time>2026-06-01T04:13:45.982Z</time>
      </trkpt>
      <trkpt lat="51.814703" lon="4.671853">
        <ele>4.762778</ele>
        <time>2026-06-01T04:14:01.715Z</time>
      </trkpt>
      <trkpt lat="51.814679" lon="4.671938">
        <ele>4.764151</ele>
        <time>2026-06-01T04:14:07.501Z</time>
      </trkpt>
      <trkpt lat="51.814636" lon="4.672066">
        <ele>4.766291</ele>
        <time>2026-06-01T04:14:16.619Z</time>
      </trkpt>
      <trkpt lat="51.814628" lon="4.672094">
        <ele>4.766744</ele>
        <time>2026-06-01T04:14:18.556Z</time>
      </trkpt>
      <trkpt lat="51.814471" lon="4.672586">
        <ele>4.774879</ele>
        <time>2026-06-01T04:14:53.244Z</time>
      </trkpt>
      <trkpt lat="51.814443" lon="4.672669">
        <ele>4.765855</ele>
        <time>2026-06-01T04:14:59.188Z</time>
      </trkpt>
      <trkpt lat="51.814338" lon="4.672571">
        <ele>4.730924</ele>
        <time>2026-06-01T04:15:11.470Z</time>
      </trkpt>
      <trkpt lat="51.813805" lon="4.671995">
        <ele>4.546215</ele>
        <time>2026-06-01T04:16:16.809Z</time>
      </trkpt>
      <trkpt lat="51.813505" lon="4.671658">
        <ele>4.440967</ele>
        <time>2026-06-01T04:16:53.634Z</time>
      </trkpt>
      <trkpt lat="51.812958" lon="4.671031">
        <ele>4.257188</ele>
        <time>2026-06-01T04:18:01.474Z</time>
      </trkpt>
      <trkpt lat="51.813200" lon="4.670588">
        <ele>4.257188</ele>
        <time>2026-06-01T04:18:38.657Z</time>
      </trkpt>
      <trkpt lat="51.813238" lon="4.670512">
        <ele>4.257188</ele>
        <time>2026-06-01T04:18:44.821Z</time>
      </trkpt>
      <trkpt lat="51.813425" lon="4.670182">
        <ele>4.257188</ele>
        <time>2026-06-01T04:19:13.180Z</time>
      </trkpt>
      <trkpt lat="51.813586" lon="4.670416">
        <ele>4.257188</ele>
        <time>2026-06-01T04:19:35.048Z</time>
      </trkpt>
      <trkpt lat="51.813677" lon="4.670549">
        <ele>4.257188</ele>
        <time>2026-06-01T04:19:47.544Z</time>
      </trkpt>
      <trkpt lat="51.813638" lon="4.670622">
        <ele>4.257188</ele>
        <time>2026-06-01T04:19:53.602Z</time>
      </trkpt>
      <trkpt lat="51.813611" lon="4.670671">
        <ele>4.257188</ele>
        <time>2026-06-01T04:19:57.686Z</time>
      </trkpt>
      <trkpt lat="51.813604" lon="4.670685">
        <ele>4.257188</ele>
        <time>2026-06-01T04:19:58.854Z</time>
      </trkpt>
      <trkpt lat="51.813543" lon="4.670800">
        <ele>4.257188</ele>
        <time>2026-06-01T04:20:08.272Z</time>
      </trkpt>
      <trkpt lat="51.813604" lon="4.670685">
        <ele>4.257188</ele>
        <time>2026-06-01T04:20:17.742Z</time>
      </trkpt>
      <trkpt lat="51.813611" lon="4.670671">
        <ele>4.257188</ele>
        <time>2026-06-01T04:20:18.890Z</time>
      </trkpt>
      <trkpt lat="51.813638" lon="4.670622">
        <ele>4.257188</ele>
        <time>2026-06-01T04:20:22.915Z</time>
      </trkpt>
      <trkpt lat="51.813677" lon="4.670549">
        <ele>4.257188</ele>
        <time>2026-06-01T04:20:28.981Z</time>
      </trkpt>
      <trkpt lat="51.813586" lon="4.670416">
        <ele>4.257188</ele>
        <time>2026-06-01T04:20:41.368Z</time>
      </trkpt>
      <trkpt lat="51.813677" lon="4.670549">
        <ele>4.257188</ele>
        <time>2026-06-01T04:20:53.783Z</time>
      </trkpt>
      <trkpt lat="51.813710" lon="4.670593">
        <ele>4.257188</ele>
        <time>2026-06-01T04:20:58.086Z</time>
      </trkpt>
      <trkpt lat="51.813927" lon="4.670890">
        <ele>4.257188</ele>
        <time>2026-06-01T04:21:26.824Z</time>
      </trkpt>
      <trkpt lat="51.814197" lon="4.670487">
        <ele>4.257188</ele>
        <time>2026-06-01T04:22:03.824Z</time>
      </trkpt>
      <trkpt lat="51.814284" lon="4.670346">
        <ele>4.257188</ele>
        <time>2026-06-01T04:22:16.179Z</time>
      </trkpt>
      <trkpt lat="51.814362" lon="4.670473">
        <ele>4.257188</ele>
        <time>2026-06-01T04:22:27.396Z</time>
      </trkpt>
    </trkseg>
  </trk>
</gpx>